[{"OBJECT_NAME":"ASTROCAST-0402","OBJECT_ID":"2023-001DE","EPOCH":"2026-03-09T19:21:31.190400","MEAN_MOTION":15.26734153,"ECCENTRICITY":0.00042092,"INCLINATION":97.5556,"RA_OF_ASC_NODE":160.6821,"ARG_OF_PERICENTER":216.6984,"MEAN_ANOMALY":143.3966,"EPHEMERIS_TYPE":0,"CLASSIFICATION_TYPE":"U","NORAD_CAT_ID":55109,"ELEMENT_SET_NO":999,"REV_AT_EPOCH":12936,"BSTAR":0.00041835119,"MEAN_MOTION_DOT":0.0001093,"MEAN_MOTION_DDOT":0},{"OBJECT_NAME":"STARLINK-31110","OBJECT_ID":"2023-211N","EPOCH":"2026-03-09T09:49:13.803456","MEAN_MOTION":15.27582049,"ECCENTRICITY":0.00014537,"INCLINATION":42.9986,"RA_OF_ASC_NODE":86.6941,"ARG_OF_PERICENTER":282.2716,"MEAN_ANOMALY":77.7973,"EPHEMERIS_TYPE":0,"CLASSIFICATION_TYPE":"U","NORAD_CAT_ID":58679,"ELEMENT_SET_NO":999,"REV_AT_EPOCH":12242,"BSTAR":1.3471105e-5,"MEAN_MOTION_DOT":1.09e-6,"MEAN_MOTION_DDOT":0}]
